CCSDS_OMM_VERS = 2.0
CREATION_DATE  = 
ORIGINATOR     = 

OBJECT_NAME    = CZ-2C R/B
OBJECT_ID      = 2022-132E
CENTER_NAME    = EARTH
REF_FRAME      = TEME
TIME_SYSTEM    = UTC
MEAN_ELEMENT_THEORY = SGP/SGP4

EPOCH          = 2026-01-15T13:30:02.674944
MEAN_MOTION    = 15.57189606
ECCENTRICITY   = .0016951
INCLINATION    = 97.2945
RA_OF_ASC_NODE = 17.4683
ARG_OF_PERICENTER = 290.9070
MEAN_ANOMALY   = 69.0371

EPHEMERIS_TYPE = 0
CLASSIFICATION_TYPE = U
NORAD_CAT_ID   = 54039
ELEMENT_SET_NO = 999
REV_AT_EPOCH   = 18209
BSTAR          = .25935E-3
MEAN_MOTION_DOT = .18881E-3
MEAN_MOTION_DDOT = 0

CCSDS_OMM_VERS = 2.0
CREATION_DATE  = 
ORIGINATOR     = 

OBJECT_NAME    = GSLV R/B
OBJECT_ID      = 2022-138AN
CENTER_NAME    = EARTH
REF_FRAME      = TEME
TIME_SYSTEM    = UTC
MEAN_ELEMENT_THEORY = SGP/SGP4

EPOCH          = 2026-01-15T23:08:38.582016
MEAN_MOTION    = 14.96336207
ECCENTRICITY   = .00212489
INCLINATION    = 87.3834
RA_OF_ASC_NODE = 184.0101
ARG_OF_PERICENTER = 349.4409
MEAN_ANOMALY   = 10.6373

EPHEMERIS_TYPE = 0
CLASSIFICATION_TYPE = U
NORAD_CAT_ID   = 54149
ELEMENT_SET_NO = 999
REV_AT_EPOCH   = 17604
BSTAR          = .14823331E-3
MEAN_MOTION_DOT = .1712E-4
MEAN_MOTION_DDOT = 0

CCSDS_OMM_VERS = 2.0
CREATION_DATE  = 
ORIGINATOR     = 

OBJECT_NAME    = XRISM
OBJECT_ID      = 2023-137A
CENTER_NAME    = EARTH
REF_FRAME      = TEME
TIME_SYSTEM    = UTC
MEAN_ELEMENT_THEORY = SGP/SGP4

EPOCH          = 2026-01-15T22:20:20.116896
MEAN_MOTION    = 15.10770656
ECCENTRICITY   = .00079727
INCLINATION    = 31.0020
RA_OF_ASC_NODE = 264.7258
ARG_OF_PERICENTER = 232.0355
MEAN_ANOMALY   = 127.9563

EPHEMERIS_TYPE = 0
CLASSIFICATION_TYPE = U
NORAD_CAT_ID   = 57800
ELEMENT_SET_NO = 999
REV_AT_EPOCH   = 12980
BSTAR          = .18184075E-3
MEAN_MOTION_DOT = .319E-4
MEAN_MOTION_DDOT = 0

CCSDS_OMM_VERS = 2.0
CREATION_DATE  = 
ORIGINATOR     = 

OBJECT_NAME    = ACS3
OBJECT_ID      = 2024-077B
CENTER_NAME    = EARTH
REF_FRAME      = TEME
TIME_SYSTEM    = UTC
MEAN_ELEMENT_THEORY = SGP/SGP4

EPOCH          = 2026-01-15T17:55:25.067424
MEAN_MOTION    = 13.87156317
ECCENTRICITY   = .00587746
INCLINATION    = 97.2411
RA_OF_ASC_NODE = 328.7509
ARG_OF_PERICENTER = 251.0458
MEAN_ANOMALY   = 108.4329

EPHEMERIS_TYPE = 0
CLASSIFICATION_TYPE = U
NORAD_CAT_ID   = 59588
ELEMENT_SET_NO = 999
REV_AT_EPOCH   = 8685
BSTAR          = .44015501E-2
MEAN_MOTION_DOT = .5209E-4
MEAN_MOTION_DDOT = 0

CCSDS_OMM_VERS = 2.0
CREATION_DATE  = 
ORIGINATOR     = 

OBJECT_NAME    = SZ-21 MODULE
OBJECT_ID      = 2025-246C
CENTER_NAME    = EARTH
REF_FRAME      = TEME
TIME_SYSTEM    = UTC
MEAN_ELEMENT_THEORY = SGP/SGP4

EPOCH          = 2026-01-15T18:38:37.661856
MEAN_MOTION    = 15.64536487
ECCENTRICITY   = .00021606
INCLINATION    = 41.4742
RA_OF_ASC_NODE = 168.0969
ARG_OF_PERICENTER = 179.3980
MEAN_ANOMALY   = 180.6863

EPHEMERIS_TYPE = 0
CLASSIFICATION_TYPE = U
NORAD_CAT_ID   = 66515
ELEMENT_SET_NO = 999
REV_AT_EPOCH   = 977
BSTAR          = .21926329E-3
MEAN_MOTION_DOT = .21472E-3
MEAN_MOTION_DDOT = 0

