CZ-2C R/B               
1 54039U 22132E   26015.56253096  .00018881  00000+0  25935-3 0  9993
2 54039  97.2945  17.4683 0016951 290.9070  69.0371 15.57189606182091
GSLV R/B                
1 54149U 22138AN  26015.96433544  .00001712  00000+0  14823-3 0  9992
2 54149  87.3834 184.0101 0021248 349.4409  10.6373 14.96336207176042
XRISM                   
1 57800U 23137A   26015.93078839  .00003190  00000+0  18184-3 0  9994
2 57800  31.0020 264.7258 0007972 232.0355 127.9563 15.10770656129808
ACS3                    
1 59588U 24077B   26015.74681791  .00005209  00000+0  44016-2 0  9994
2 59588  97.2411 328.7509 0058774 251.0458 108.4329 13.87156317 86857
SZ-21 MODULE            
1 66515U 25246C   26015.77682479  .00021472  00000+0  21926-3 0  9994
2 66515  41.4742 168.0969 0002160 179.3980 180.6863 15.64536487  9776
